[
    {
        "Altitude(m)": 704566.3323379509,
        "Argument of Periapsis(deg)": 0.0011390121186627068,
        "Eccentricity": 0.0,
        "Inclination(deg)": 45.0,
        "Latitude(deg)": 31.778456372438594,
        "Longitude(deg)": 171.91292209174856,
        "Mean Anomaly(deg)": 132.062421664748,
        "RAAN(deg)": 129.9989248058542,
        "Satellite Name": "Constellation 1 580",
        "Satellite Number": 580,
        "Semi-Major Axis(m)": 7083131.272910544,
        "Time(s)": 19
    },
    {
        "Altitude(m)": 704560.4323472118,
        "Argument of Periapsis(deg)": 0.0011989601249081123,
        "Eccentricity": 0.0,
        "Inclination(deg)": 45.0,
        "Latitude(deg)": 31.74448549364521,
        "Longitude(deg)": 171.96800584370277,
        "Mean Anomaly(deg)": 132.12312280499805,
        "RAAN(deg)": 129.9988682166886,
        "Satellite Name": "Constellation 1 580",
        "Satellite Number": 580,
        "Semi-Major Axis(m)": 7083131.272910544,
        "Time(s)": 20
    },
    {
        "Altitude(m)": 704554.5346881953,
        "Argument of Periapsis(deg)": 0.001258908131153518,
        "Eccentricity": 0.0,
        "Inclination(deg)": 45.0,
        "Latitude(deg)": 31.710486968019683,
        "Longitude(deg)": 172.02304640541016,
        "Mean Anomaly(deg)": 132.18382394524787,
        "RAAN(deg)": 129.99881162752303,
        "Satellite Name": "Constellation 1 580",
        "Satellite Number": 580,
        "Semi-Major Axis(m)": 7083131.272910544,
        "Time(s)": 21
    },
    {
        "Altitude(m)": 704548.6394002204,
        "Argument of Periapsis(deg)": 0.0013188561373989236,
        "Eccentricity": 0.0,
        "Inclination(deg)": 45.0,
        "Latitude(deg)": 31.67646085161079,
        "Longitude(deg)": 172.07804366258216,
        "Mean Anomaly(deg)": 132.2445250854978,
        "RAAN(deg)": 129.99875503835747,
        "Satellite Name": "Constellation 1 580",
        "Satellite Number": 580,
        "Semi-Major Axis(m)": 7083131.272910544,
        "Time(s)": 22
    },
    {
        "Altitude(m)": 704542.7465226165,
        "Argument of Periapsis(deg)": 0.0013788041436443293,
        "Eccentricity": 0.0,
        "Inclination(deg)": 45.0,
        "Latitude(deg)": 31.64240720039348,
        "Longitude(deg)": 172.13299800531752,
        "Mean Anomaly(deg)": 132.30522622574767,
        "RAAN(deg)": 129.99869844919192,
        "Satellite Name": "Constellation 1 580",
        "Satellite Number": 580,
        "Semi-Major Axis(m)": 7083131.272910544,
        "Time(s)": 23
    },
    {
        "Altitude(m)": 704536.8560947124,
        "Argument of Periapsis(deg)": 0.001438752149889735,
        "Eccentricity": 0.0,
        "Inclination(deg)": 45.0,
        "Latitude(deg)": 31.608326070270255,
        "Longitude(deg)": 172.187909319519,
        "Mean Anomaly(deg)": 132.3659273659976,
        "RAAN(deg)": 129.99864186002634,
        "Satellite Name": "Constellation 1 580",
        "Satellite Number": 580,
        "Semi-Major Axis(m)": 7083131.272910544,
        "Time(s)": 24
    },
    {
        "Altitude(m)": 704530.9681558434,
        "Argument of Periapsis(deg)": 0.0014987001561351404,
        "Eccentricity": 0.0,
        "Inclination(deg)": 45.0,
        "Latitude(deg)": 31.57421751707033,
        "Longitude(deg)": 172.24277765928082,
        "Mean Anomaly(deg)": 132.42662850624748,
        "RAAN(deg)": 129.9985852708608,
        "Satellite Name": "Constellation 1 580",
        "Satellite Number": 580,
        "Semi-Major Axis(m)": 7083131.272910544,
        "Time(s)": 25
    },
    {
        "Altitude(m)": 704525.0827453518,
        "Argument of Periapsis(deg)": 0.001558648162380546,
        "Eccentricity": 0.0,
        "Inclination(deg)": 45.0,
        "Latitude(deg)": 31.54008159654949,
        "Longitude(deg)": 172.29760307879076,
        "Mean Anomaly(deg)": 132.48732964649736,
        "RAAN(deg)": 129.99852868169518,
        "Satellite Name": "Constellation 1 580",
        "Satellite Number": 580,
        "Semi-Major Axis(m)": 7083131.272910544,
        "Time(s)": 26
    },
    {
        "Altitude(m)": 704519.1999025791,
        "Argument of Periapsis(deg)": 0.0016185961686259519,
        "Eccentricity": 0.0,
        "Inclination(deg)": 45.0,
        "Latitude(deg)": 31.505918364390478,
        "Longitude(deg)": 172.35238563232923,
        "Mean Anomaly(deg)": 132.54803078674723,
        "RAAN(deg)": 129.99847209252962,
        "Satellite Name": "Constellation 1 580",
        "Satellite Number": 580,
        "Semi-Major Axis(m)": 7083131.272910544,
        "Time(s)": 27
    },
    {
        "Altitude(m)": 704513.3196668755,
        "Argument of Periapsis(deg)": 0.0016785441748713573,
        "Eccentricity": 0.0,
        "Inclination(deg)": 45.0,
        "Latitude(deg)": 31.471727876202714,
        "Longitude(deg)": 172.40712537426867,
        "Mean Anomaly(deg)": 132.6087319269972,
        "RAAN(deg)": 129.99841550336404,
        "Satellite Name": "Constellation 1 580",
        "Satellite Number": 580,
        "Semi-Major Axis(m)": 7083131.272910544,
        "Time(s)": 28
    },
    {
        "Altitude(m)": 704507.4420775856,
        "Argument of Periapsis(deg)": 0.001738492181116763,
        "Eccentricity": 0.0,
        "Inclination(deg)": 45.0,
        "Latitude(deg)": 31.437510187522545,
        "Longitude(deg)": 172.46182235907222,
        "Mean Anomaly(deg)": 132.66943306724704,
        "RAAN(deg)": 129.9983589141985,
        "Satellite Name": "Constellation 1 580",
        "Satellite Number": 580,
        "Semi-Major Axis(m)": 7083131.272910544,
        "Time(s)": 29
    },
    {
        "Altitude(m)": 704501.5671740703,
        "Argument of Periapsis(deg)": 0.0017984401873621684,
        "Eccentricity": 0.0,
        "Inclination(deg)": 45.0,
        "Latitude(deg)": 31.40326535381319,
        "Longitude(deg)": 172.51647647319635,
        "Mean Anomaly(deg)": 132.73013420749697,
        "RAAN(deg)": 129.99830232503294,
        "Satellite Name": "Constellation 1 580",
        "Satellite Number": 580,
        "Semi-Major Axis(m)": 7083131.272910544,
        "Time(s)": 30
    },
    {
        "Altitude(m)": 704495.6949956835,
        "Argument of Periapsis(deg)": 0.0018583881936075745,
        "Eccentricity": 0.0,
        "Inclination(deg)": 45.0,
        "Latitude(deg)": 31.368993430463785,
        "Longitude(deg)": 172.57108810747815,
        "Mean Anomaly(deg)": 132.79083534774688,
        "RAAN(deg)": 129.99824573586733,
        "Satellite Name": "Constellation 1 580",
        "Satellite Number": 580,
        "Semi-Major Axis(m)": 7083131.272910544,
        "Time(s)": 31
    },
    {
        "Altitude(m)": 704489.8255817863,
        "Argument of Periapsis(deg)": 0.0019183361998529795,
        "Eccentricity": 0.0,
        "Inclination(deg)": 45.0,
        "Latitude(deg)": 31.334694472791085,
        "Longitude(deg)": 172.62565714855194,
        "Mean Anomaly(deg)": 132.85153648799678,
        "RAAN(deg)": 129.99818914670178,
        "Satellite Name": "Constellation 1 580",
        "Satellite Number": 580,
        "Semi-Major Axis(m)": 7083131.272910544,
        "Time(s)": 32
    },
    {
        "Altitude(m)": 704483.9589717477,
        "Argument of Periapsis(deg)": 0.0019782842060983856,
        "Eccentricity": 0.0,
        "Inclination(deg)": 45.0,
        "Latitude(deg)": 31.30036853603825,
        "Longitude(deg)": 172.68018365123692,
        "Mean Anomaly(deg)": 132.91223762824666,
        "RAAN(deg)": 129.99813255753622,
        "Satellite Name": "Constellation 1 580",
        "Satellite Number": 580,
        "Semi-Major Axis(m)": 7083131.272910544,
        "Time(s)": 33
    },
    {
        "Altitude(m)": 704478.09520492,
        "Argument of Periapsis(deg)": 0.0020382322123437906,
        "Eccentricity": 0.0,
        "Inclination(deg)": 45.0,
        "Latitude(deg)": 31.266015675375236,
        "Longitude(deg)": 172.734667670439,
        "Mean Anomaly(deg)": 132.97293876849653,
        "RAAN(deg)": 129.99807596837064,
        "Satellite Name": "Constellation 1 580",
        "Satellite Number": 580,
        "Semi-Major Axis(m)": 7083131.272910544,
        "Time(s)": 34
    },
    {
        "Altitude(m)": 704472.2343206863,
        "Argument of Periapsis(deg)": 0.002098180218589197,
        "Eccentricity": 0.0,
        "Inclination(deg)": 45.0,
        "Latitude(deg)": 31.23163594589851,
        "Longitude(deg)": 172.7891092611505,
        "Mean Anomaly(deg)": 133.03363990874652,
        "RAAN(deg)": 129.9980193792051,
        "Satellite Name": "Constellation 1 580",
        "Satellite Number": 580,
        "Semi-Major Axis(m)": 7083131.272910544,
        "Time(s)": 35
    },
    {
        "Altitude(m)": 704466.3763584117,
        "Argument of Periapsis(deg)": 0.002158128224834602,
        "Eccentricity": 0.0,
        "Inclination(deg)": 45.0,
        "Latitude(deg)": 31.19722940263151,
        "Longitude(deg)": 172.8435084784486,
        "Mean Anomaly(deg)": 133.09434104899637,
        "RAAN(deg)": 129.99796279003948,
        "Satellite Name": "Constellation 1 580",
        "Satellite Number": 580,
        "Semi-Major Axis(m)": 7083131.272910544,
        "Time(s)": 36
    },
    {
        "Altitude(m)": 704460.5213574641,
        "Argument of Periapsis(deg)": 0.002218076231080008,
        "Eccentricity": 0.0,
        "Inclination(deg)": 45.0,
        "Latitude(deg)": 31.162796100524517,
        "Longitude(deg)": 172.89786520939836,
        "Mean Anomaly(deg)": 133.15504218924622,
        "RAAN(deg)": 129.99790620087393,
        "Satellite Name": "Constellation 1 580",
        "Satellite Number": 580,
        "Semi-Major Axis(m)": 7083131.272910544,
        "Time(s)": 37
    }
]